*******************************************************************************
JPL/HORIZONS               1484 Postrema (1938 HC)         2023-Sep-04 11:12:25
Rec #:    1484 (+COV) Soln.date: 2023-Aug-22_03:25:22   # obs: 3597 (1933-2023)
 
IAU76/J2000 helio. ecliptic osc. elements (au, days, deg., period=Julian yrs):
 
  EPOCH=  2457764.5 ! 2017-Jan-11.00 (TDB)         Residual RMS= .24642
   EC= .2037053914147364   QR= 2.181234877365365   TP= 2457106.8908494576
   OM= 72.77395811197826   W=  126.7713930920479   IN= 17.29941514827161
   A= 2.739231000496983    MA= 142.9647386133313   ADIST= 3.297227123628601
   PER= 4.53368            N= .217400774           ANGMOM= .027873581
   DAN= 2.9902             DDN= 2.34019            L= 200.8251196
   B= 13.7802384           MOID= 1.22003996        TP= 2015-Mar-25.3908494576
 
Asteroid physical parameters (km, seconds, rotational period in hours):
   GM= n.a.                RAD= 20.4355            ROTPER= 12.1923
   H= 10.89                G= .150                 B-V= n.a.
                           ALBEDO= .015            STYP= B

ASTEROID comments: 
1: soln ref.= JPL#56, OCC=0
2: source=ORB
*******************************************************************************


*******************************************************************************
Ephemeris / API_USER Mon Sep  4 11:12:25 2023 Pasadena, USA      / Horizons
*******************************************************************************
Target body name: 1484 Postrema (1938 HC)         {source: JPL#56}
Center body name: Solar System Barycenter (0)     {source: DE441}
Center-site name: BODY CENTER
*******************************************************************************
Start time      : A.D. 2023-Aug-12 00:00:00.0000 TDB
Stop  time      : A.D. 2023-Aug-13 00:00:00.0000 TDB
Step-size       : 2880 minutes
*******************************************************************************
Center geodetic : 0.0, 0.0, 0.0                   {E-lon(deg),Lat(deg),Alt(km)}
Center cylindric: 0.0, 0.0, 0.0                   {E-lon(deg),Dxy(km),Dz(km)}
Center radii    : (undefined)
Small perturbers: Yes                             {source: SB441-N16}
Output units    : KM-S
Calendar mode   : Mixed Julian/Gregorian
Output type     : GEOMETRIC cartesian states
Output format   : 2 (position and velocity)
Reference frame : Ecliptic of J2000.0
*******************************************************************************
Initial IAU76/J2000 heliocentric ecliptic osculating elements (au, days, deg.):
  EPOCH=  2457764.5 ! 2017-Jan-11.00 (TDB)         Residual RMS= .24642        
   EC= .2037053914147364   QR= 2.181234877365365   TP= 2457106.8908494576      
   OM= 72.77395811197826   W=  126.7713930920479   IN= 17.29941514827161       
  Equivalent ICRF heliocentric cartesian coordinates (au, au/d):
   X= 3.064112363969866E+00  Y= 1.088141873549404E-01  Z=-9.752922449674781E-01
  VX= 1.847804531292932E-03 VY= 7.715559369305059E-03 VZ= 3.601641161961466E-03
Asteroid physical parameters (km, seconds, rotational period in hours):        
   GM= n.a.                RAD= 20.4355            ROTPER= 12.1923             
   H= 10.89                G= .150                 B-V= n.a.                   
                           ALBEDO= .015            STYP= B                     
*******************************************************************************
JDTDB
   X     Y     Z
   VX    VY    VZ
*******************************************************************************
$$SOE
2460168.500000000 = A.D. 2023-Aug-12 00:00:00.0000 TDB 
 X =-1.938923335602882E+08 Y = 3.079386501590720E+08 Z = 8.596041237520525E+07
 VX=-1.369684710495984E+01 VY=-1.383061226117437E+01 VZ= 2.785495962548163E+00
$$EOE
*******************************************************************************
 
TIME

  Barycentric Dynamical Time ("TDB" or T_eph) output was requested. This
continuous coordinate time is equivalent to the relativistic proper time
of a clock at rest in a reference frame co-moving with the solar system
barycenter but outside the system's gravity well. It is the independent
variable in the solar system relativistic equations of motion.

  TDB runs at a uniform rate of one SI second per second and is independent
of irregularities in Earth's rotation.
 
CALENDAR SYSTEM

  Mixed calendar mode was active such that calendar dates after AD 1582-Oct-15
(if any) are in the modern Gregorian system. Dates prior to 1582-Oct-5 (if any)
are in the Julian calendar system, which is automatically extended for dates
prior to its adoption on 45-Jan-1 BC.  The Julian calendar is useful for
matching historical dates. The Gregorian calendar more accurately corresponds
to the Earth's orbital motion and seasons. A "Gregorian-only" calendar mode is
available if such physical events are the primary interest.

REFERENCE FRAME AND COORDINATES

  Ecliptic at the standard reference epoch

    Reference epoch: J2000.0
    X-Y plane: adopted Earth orbital plane at the reference epoch
               Note: IAU76 obliquity of 84381.448 arcseconds wrt ICRF X-Y plane
    X-axis   : ICRF
    Z-axis   : perpendicular to the X-Y plane in the directional (+ or -) sense
               of Earth's north pole at the reference epoch.

  Symbol meaning:

    JDTDB    Julian Day Number, Barycentric Dynamical Time
      X      X-component of position vector (km)
      Y      Y-component of position vector (km)
      Z      Z-component of position vector (km)
      VX     X-component of velocity vector (km/sec)                           
      VY     Y-component of velocity vector (km/sec)                           
      VZ     Z-component of velocity vector (km/sec)                           

ABERRATIONS AND CORRECTIONS

 Geometric state vectors have NO corrections or aberrations applied.

Computations by ...

    Solar System Dynamics Group, Horizons On-Line Ephemeris System
    4800 Oak Grove Drive, Jet Propulsion Laboratory
    Pasadena, CA  91109   USA

    General site: https://ssd.jpl.nasa.gov/
    Mailing list: https://ssd.jpl.nasa.gov/email_list.html
    System news : https://ssd.jpl.nasa.gov/horizons/news.html
    User Guide  : https://ssd.jpl.nasa.gov/horizons/manual.html
    Connect     : browser        https://ssd.jpl.nasa.gov/horizons/app.html#/x
                  API            https://ssd-api.jpl.nasa.gov/doc/horizons.html
                  command-line   telnet ssd.jpl.nasa.gov 6775
                  e-mail/batch   https://ssd.jpl.nasa.gov/ftp/ssd/hrzn_batch.txt
                  scripts        https://ssd.jpl.nasa.gov/ftp/ssd/SCRIPTS
    Author      : Jon.D.Giorgini@jpl.nasa.gov
*******************************************************************************
